STARLINK-36862          
1 68003U 26039T   26065.25002315 -.01461991  63625-3 -32630-2 0  9998
2 68003  42.9979  76.1405 0001534 269.9631 273.0237 15.96984525  2326
STARLINK-36888          
1 68004U 26039U   26065.25002315 -.01465759  63660-3 -33454-2 0  9999
2 68004  42.9979  76.1558 0001481 268.7456 268.4022 15.96579125  2325
STARLINK-36910          
1 68005U 26039V   26065.25002315 -.01465050  63786-3 -32930-2 0  9991
2 68005  42.9977  76.1450 0001534 271.4772 269.7552 15.96856726  2323
STARLINK-36889          
1 68006U 26039W   26065.25002315 -.01455514  63194-3 -32250-2 0  9994
2 68006  42.9977  76.1355 0001479 273.4809 271.3597 15.97115209  2322
STARLINK-36592          
1 68007U 26039X   26065.25002315 -.01455930  63315-3 -32020-2 0  9997
2 68007  42.9977  76.1314 0001531 267.6539 279.0257 15.97249175  2320
STARLINK-36911          
1 68008U 26039Y   26065.25002315 -.01447708  62745-3 -31608-2 0  9999
2 68008  42.9978  76.1264 0001570 267.0553 281.5881 15.97379282  2323
STARLINK-36956          
1 68009U 26039Z   26065.25002315 -.01441099  62303-3 -31239-2 0  9997
2 68009  42.9975  76.1215 0001423 275.2546 275.2460 15.97507948  2322
STARLINK-36953          
1 68010U 26039AA  26065.25002315 -.01450188  63210-3 -30952-2 0  9997
2 68010  42.9975  76.1109 0001610 266.6188 287.9572 15.97787095  2327
STARLINK-36991          
1 68011U 26039AB  26065.25002315 -.01439916  62476-3 -30507-2 0  9993
2 68011  42.9975  76.1060 0001534 267.7938 288.7781 15.97917699  2320
STARLINK-36936          
1 68012U 26039AC  26065.25002315 -.01443118  62911-3 -30111-2 0  9998
2 68012  42.9975  76.0957 0001585 270.5751 289.8959 15.98191581  2320
STARLINK-36967          
1 68013U 26039AD  26065.25002315 -.01444122  62632-3 -31067-2 0  9996
2 68013  42.9975  76.1159 0001545 270.8717 281.5988 15.97644918  2324
STARLINK-36985          
1 68014U 26039AE  26065.25002315 -.01444593  62938-3 -30376-2 0  9990
2 68014  42.9975  76.1011 0001596 270.0339 288.4182 15.98053375  2324
